AL MUNTHER              
1 63240U 25052AG  26068.64540749  .00017933  00000+0  65015-3 0  9992
2 63240  97.4001 323.9152 0008027 130.7043 229.4895 15.28381521 54798
STARLINK-34100          
1 64385U 25127R   26068.62312048  .00023952  00000+0  87620-3 0  9997
2 64385  43.0043 180.4476 0002542 293.0590  66.9994 15.27611959 42402
